[{"OBJECT_NAME":"ICEYE-X4","OBJECT_ID":"2019-038D","EPOCH":"2026-03-09T23:53:58.416000","MEAN_MOTION":15.26985132,"ECCENTRICITY":0.00122769,"INCLINATION":97.8888,"RA_OF_ASC_NODE":96.1923,"ARG_OF_PERICENTER":293.9914,"MEAN_ANOMALY":66.0038,"EPHEMERIS_TYPE":0,"CLASSIFICATION_TYPE":"U","NORAD_CAT_ID":44390,"ELEMENT_SET_NO":999,"REV_AT_EPOCH":36665,"BSTAR":0.00049915294,"MEAN_MOTION_DOT":0.00013179,"MEAN_MOTION_DDOT":0},{"OBJECT_NAME":"STARLINK-30954","OBJECT_ID":"2023-180F","EPOCH":"2026-03-09T00:16:29.178048","MEAN_MOTION":15.26752569,"ECCENTRICITY":7.925e-5,"INCLINATION":42.9992,"RA_OF_ASC_NODE":56.2501,"ARG_OF_PERICENTER":248.5691,"MEAN_ANOMALY":111.5076,"EPHEMERIS_TYPE":0,"CLASSIFICATION_TYPE":"U","NORAD_CAT_ID":58407,"ELEMENT_SET_NO":999,"REV_AT_EPOCH":12752,"BSTAR":5.8271801e-5,"MEAN_MOTION_DOT":1.304e-5,"MEAN_MOTION_DDOT":0}]
